CSTP-2.1
1 61777U 24199AU  25214.83142039  .00007107  00000-0  22368-3 0  9996
2 61777  97.3481  82.5313 0017709 354.7471   5.3583 15.33098957 85219
SITRO-AIS-39
1 61778U 24199AV  25214.82564696  .00016068  00000-0  47321-3 0  9995
2 61778  97.3443  83.0282 0012574  17.3390 342.8280 15.35050441 85251
ALTAIR (RS65S)
1 61779U 24199AW  25214.84850695  .00007387  00000-0  25887-3 0  9992
2 61779  97.3494  82.0755 0015421  11.9024 348.2578 15.29649268 88336
SITRO-AIS-37
1 61780U 24199AX  25214.87669054  .00016730  00000-0  48920-3 0  9999
2 61780  97.3452  83.1417 0012816  17.0488 343.1184 15.35263345 85266
ASRTU-1 (RS64S/BJ2CR)
1 61781U 24199AY  25214.84551213  .00006564  00000-0  23504-3 0  9999
2 61781  97.3482  81.9049 0015804  12.3206 347.8417 15.28982700 85178
TUSUR GO (RS78S)
1 61782U 24199AZ  25214.85751958  .00025603  00000-0  66082-3 0  9992
2 61782  97.3456  83.8097 0012608   6.0822 354.0574 15.39057444 85306
ZIMSAT-2 (Z2AS)
1 61783U 24199BA  25214.83651577  .00038025  00000-0  82374-3 0  9991
2 61783  97.3432  84.7131 0011445   4.0736 356.0604 15.44272776 88515
SAMSAT-IONOSPHERE (RS75S)
1 61784U 24199BB  25214.83821179  .00016449  00000-0  48451-3 0  9993
2 61784  97.3471  83.1055 0014140   8.9610 351.1883 15.35020440 88408
RTU MIREA-1 (RS51S)
1 61785U 24199BC  25214.85809109  .00017986  00000-0  52049-3 0  9990
2 61785  97.3469  83.2271 0013778   7.3259 352.8183 15.35562564 85265
SITRO-AIS-38
1 61786U 24199BD  25214.83248226  .00016688  00000-0  49172-3 0  9997
2 61786  97.3451  83.0325 0012597  18.6623 341.5079 15.35026157 85254
2024-199BE (? SWSU-60)
1 61787U 24199BE  25214.84033288  .00007498  00000-0  26607-3 0  9996
2 61787  97.3488  81.9270 0015794  11.9768 348.1845 15.29230438 88326
SITRO-AIS-45
1 61788U 24199BF  25214.81387833  .00016610  00000-0  48762-3 0  9994
2 61788  97.3440  83.0272 0012548  17.4107 342.7564 15.35144179 85230
SITRO-AIS-17
1 61789U 24199BG  25214.82022891  .00003073  00000-0  28205-3 0  9995
2 61789  97.3546  69.0975 0008263  74.7279 285.4855 14.95511960 84413
SITRO-AIS-18
1 61790U 24199BH  25214.82490247  .00002673  00000-0  24617-3 0  9999
2 61790  97.3543  69.0799 0008102  72.7706 287.4402 14.95476073 84416
HADES-R (SO-124)
1 62690U 25009CK  25214.14868894  .00044060  00000-0  14002-2 0  9994
2 62690  97.4062 294.8597 0002339 234.7420 125.3603 15.32493419 30347
OTP-2
1 63235U 25052AB  25214.49467067  .00005236  00000-0  25703-3 0  9996
2 63235  97.4211 107.2021 0006905 183.2059 176.9132 15.18488451 21418
